0 FENGYUN 1C DEB
1 32234U 99025CWG 13291.37744045  .00001254  00000-0  10874-2 0  5157
2 32234 098.5563 083.3280 0151302 261.3374 126.4397 13.82824582318258
0 FENGYUN 1C DEB
1 32234U 99025CWG 13295.23188894  .00001588  00000-0  13685-2 0  5164
2 32234 098.5555 086.8325 0151188 250.7601 234.6973 13.82836238318785
